NORAD_CAT_ID,OBJECT_NAME,OBJECT_TYPE,EPOCH,MEAN_MOTION,ECCENTRICITY,INCLINATION,RA_OF_ASC_NODE,ARG_OF_PERICENTER,MEAN_ANOMALY,BSTAR,MEAN_MOTION_DOT,MEAN_MOTION_DDOT,TLE_LINE0,TLE_LINE1,TLE_LINE2,SEMIMAJOR_AXIS,PERIOD,APOGEE,PERIGEE,DECAYED
53438.0,STARLINK-4526,PAYLOAD,2023-06-05 13:08:37,15.08842409,0.000101,53.2172,309.4895,84.8011,275.3096,0.00014736,2.058e-05,0.0,0 STARLINK-4526,1 53438U 22097BC  23156.54765246  .00002058  00000-0  14736-3 0  9998,2 53438  53.2172 309.4895 0001010  84.8011 275.3096 15.08842409 46606,6917.873,95.437,540.437,539.039,0.0
53438.0,STARLINK-4526,PAYLOAD,2023-06-05 19:30:09,15.08850509,9.55e-05,53.2174,308.3002,83.4017,276.7083,0.00020553,2.986e-05,0.0,0 STARLINK-4526,1 53438U 22097BC  23156.81260671  .00002986  00000-0  20553-3 0  9994,2 53438  53.2174 308.3002 0000955  83.4017 276.7083 15.08850509 46649,6917.848,95.437,540.374,539.053,0.0
53438.0,STARLINK-4526,PAYLOAD,2023-06-06 03:27:05,15.08841241,9.7e-05,53.2164,306.8126,80.7421,279.3681,7.2396e-05,8.65e-06,0.0,0 STARLINK-4526,1 53438U 22097BC  23157.14381305  .00000865  00000-0  72396-4 0  9996,2 53438  53.2164 306.8126 0000970  80.7421 279.3681 15.08841241 46695,6917.877,95.437,540.413,539.071,0.0
53438.0,STARLINK-4526,PAYLOAD,2023-06-06 16:10:10,15.08842038,0.0001069,53.2178,304.4341,84.3645,275.7469,4.0839e-05,3.62e-06,0.0,0 STARLINK-4526,1 53438U 22097BC  23157.67373489  .00000362  00000-0  40839-4 0  9997,2 53438  53.2178 304.4341 0001069  84.3645 275.7469 15.08842038 46285,6917.874,95.437,540.479,539.0,0.0
53438.0,STARLINK-4526,PAYLOAD,2023-06-06 19:20:56,15.08844647,0.0001058,53.2179,303.839,86.2408,273.8705,5.9753e-05,6.63e-06,0.0,0 STARLINK-4526,1 53438U 22097BC  23157.80621259  .00000663  00000-0  59753-4 0  9992,2 53438  53.2179 303.8390 0001058  86.2408 273.8705 15.08844647 46795,6917.866,95.437,540.463,538.999,0.0
53438.0,STARLINK-4526,PAYLOAD,2023-06-07 09:39:25,15.08840916,0.0001085,53.2172,301.1646,79.2186,280.8928,4.068e-05,3.6e-06,0.0,0 STARLINK-4526,1 53438U 22097BC  23158.40237580  .00000360  00000-0  40680-4 0  9992,2 53438  53.2172 301.1646 0001085  79.2186 280.8928 15.08840916 46888,6917.878,95.437,540.493,538.992,0.0
53438.0,STARLINK-4526,PAYLOAD,2023-06-07 19:11:43,15.08847275,0.0001068,53.2171,299.38,78.5828,281.5284,2.6136e-05,1.28e-06,0.0,0 STARLINK-4526,1 53438U 22097BC  23158.79981150  .00000128  00000-0  26136-4 0  9995,2 53438  53.2171 299.3800 0001068  78.5828 281.5284 15.08847275 46948,6917.858,95.437,540.462,538.984,0.0
53438.0,STARLINK-4526,PAYLOAD,2023-06-08 09:30:12,15.08837921,0.0001136,53.2155,296.7014,99.5606,260.5515,0.00010229,1.34e-05,0.0,0 STARLINK-4526,1 53438U 22097BC  23159.39597508  .00001340  00000-0  10229-3 0  9994,2 53438  53.2155 296.7014 0001136  99.5606 260.5515 15.08837921 46548,6917.887,95.438,540.538,538.966,0.0
53438.0,STARLINK-4526,PAYLOAD,2023-06-08 12:40:58,15.08839165,0.0001106,53.2152,296.1053,111.0744,249.0367,9.6735e-05,1.252e-05,0.0,0 STARLINK-4526,1 53438U 22097BC  23159.52845411  .00001252  00000-0  96735-4 0  9997,2 53438  53.2152 296.1053 0001106 111.0744 249.0367 15.08839165 47058,6917.883,95.438,540.513,538.983,0.0
53438.0,STARLINK-4526,PAYLOAD,2023-06-08 15:51:44,15.08840564,9.31e-05,53.215,295.5126,96.3427,263.7672,0.00014018,1.944e-05,0.0,0 STARLINK-4526,1 53438U 22097BC  23159.66093264  .00001944  00000-0  14018-3 0  9994,2 53438  53.2150 295.5126 0000931  96.3427 263.7672 15.08840564 47077,6917.879,95.438,540.388,539.1,0.0
53438.0,STARLINK-4526,PAYLOAD,2023-06-09 09:20:59,15.08858619,7.66e-05,53.2168,292.242,97.1292,262.9787,-0.00024355,-4.164e-05,0.0,0 STARLINK-4526,1 53438U 22097BC  23160.38957469 -.00004164  00000-0 -24355-3 0  9995,2 53438  53.2168 292.2420 0000766  97.1292 262.9787 15.08858619 47182,6917.823,95.436,540.218,539.159,0.0
53438.0,STARLINK-4526,PAYLOAD,2023-06-09 15:42:31,15.08841061,8.46e-05,53.2177,291.0534,94.3845,265.7244,4.8687e-05,4.87e-06,0.0,0 STARLINK-4526,1 53438U 22097BC  23160.65453682  .00000487  00000-0  48687-4 0  9990,2 53438  53.2177 291.0534 0000846  94.3845 265.7244 15.08841061 46739,6917.877,95.437,540.327,539.157,0.0
53438.0,STARLINK-4526,PAYLOAD,2023-06-10 09:11:46,15.088359,0.0001074,53.2175,287.7834,105.4802,254.6308,5.9982e-05,6.67e-06,0.0,0 STARLINK-4526,1 53438U 22097BC  23161.38318180  .00000667  00000-0  59982-4 0  9994,2 53438  53.2175 287.7834 0001074 105.4802 254.6308 15.08835900 46848,6917.893,95.438,540.501,539.015,0.0
53438.0,STARLINK-4526,PAYLOAD,2023-06-10 10:47:09,15.08848386,0.0001384,53.2172,287.4857,108.2353,251.879,-0.00012698,-2.309e-05,0.0,0 STARLINK-4526,1 53438U 22097BC  23161.44941974 -.00002309  00000-0 -12698-3 0  9993,2 53438  53.2172 287.4857 0001384 108.2353 251.8790 15.08848386 47345,6917.855,95.437,540.677,538.762,0.0
53438.0,STARLINK-4526,PAYLOAD,2023-06-10 13:57:56,15.08838604,9.69e-05,53.2171,286.891,91.9034,268.2069,6.9083e-05,8.12e-06,0.0,0 STARLINK-4526,1 53438U 22097BC  23161.58190057  .00000812  00000-0  69083-4 0  9992,2 53438  53.2171 286.8910 0000969  91.9034 268.2069 15.08838604 47364,6917.885,95.438,540.42,539.079,0.0
53438.0,STARLINK-4526,PAYLOAD,2023-06-11 09:02:34,15.08832224,0.0001036,53.2174,283.3227,90.4414,269.6697,5.2074e-05,5.41e-06,0.0,0 STARLINK-4526,1 53438U 22097BC  23162.37678626  .00000541  00000-0  52074-4 0  9994,2 53438  53.2174 283.3227 0001036  90.4414 269.6697 15.08832224 47489,6917.904,95.438,540.486,539.052,0.0
53438.0,STARLINK-4526,PAYLOAD,2023-06-11 18:34:52,15.08840058,0.0001074,53.2169,281.5375,94.815,265.2965,0.00011672,1.57e-05,0.0,0 STARLINK-4526,1 53438U 22097BC  23162.77422045  .00001570  00000-0  11672-3 0  9991,2 53438  53.2169 281.5375 0001074  94.8150 265.2965 15.08840058 47545,6917.88,95.438,540.488,539.002,0.0
53438.0,STARLINK-4526,PAYLOAD,2023-06-12 00:56:25,15.0883759,0.0001124,53.217,280.347,82.676,277.436,6.4456e-05,7.38e-06,0.0,0 STARLINK-4526,1 53438U 22097BC  23163.03918389  .00000738  00000-0  64456-4 0  9996,2 53438  53.2170 280.3470 0001124  82.6760 277.4360 15.08837590 47099,6917.888,95.438,540.53,538.975,0.0
53438.0,STARLINK-4526,PAYLOAD,2023-06-13 03:57:58,15.0883554,0.0001141,53.2158,275.2915,79.9594,280.1526,0.00012155,1.647e-05,0.0,0 STARLINK-4526,1 53438U 22097BC  23164.16526459  .00001647  00000-0  12155-3 0  9992,2 53438  53.2158 275.2915 0001141  79.9594 280.1526 15.08835540 47262,6917.894,95.438,540.548,538.97,0.0
53438.0,STARLINK-4526,PAYLOAD,2023-06-13 07:08:45,15.0883613,0.0001124,53.217,274.6986,86.5908,273.5213,0.00010098,1.319e-05,0.0,0 STARLINK-4526,1 53438U 22097BC  23164.29774544  .00001319  00000-0  10098-3 0  9996,2 53438  53.2170 274.6986 0001124  86.5908 273.5213 15.08836130 47772,6917.892,95.438,540.535,538.98,0.0
53438.0,STARLINK-4526,PAYLOAD,2023-06-14 00:37:59,15.08845896,8.52e-05,53.2162,271.4287,107.6298,252.4787,3.7233e-05,3.05e-06,0.0,0 STARLINK-4526,1 53438U 22097BC  23165.02637889  .00000305  00000-0  37233-4 0  9993,2 53438  53.2162 271.4287 0000852 107.6298 252.4787 15.08845896 47395,6917.862,95.437,540.317,539.138,0.0
53438.0,STARLINK-4526,PAYLOAD,2023-06-14 10:10:17,15.08871894,0.0001409,53.2164,269.6436,72.7971,287.3176,-0.000344,-5.763e-05,0.0,0 STARLINK-4526,1 53438U 22097BC  23165.42381130 -.00005763  00000-0 -34400-3 0  9999,2 53438  53.2164 269.6436 0001409  72.7971 287.3176 15.08871894 47454,6917.783,95.436,540.623,538.673,0.0
53438.0,STARLINK-4526,PAYLOAD,2023-06-15 00:28:46,15.08843638,0.0001153,53.2163,266.9673,78.0133,282.0989,7.389e-05,8.88e-06,0.0,0 STARLINK-4526,1 53438U 22097BC  23166.01997975  .00000888  00000-0  73890-4 0  9993,2 53438  53.2163 266.9673 0001153  78.0133 282.0989 15.08843638 47540,6917.869,95.437,540.532,538.937,0.0
53438.0,STARLINK-4526,PAYLOAD,2023-06-15 10:01:05,15.08833138,0.0001185,53.2162,265.1826,86.3631,273.7497,3.8039e-07,-2.82e-06,0.0,0 STARLINK-4526,1 53438U 22097BC  23166.41742868 -.00000282  00000-0  38039-6 0  9993,2 53438  53.2162 265.1826 0001185  86.3631 273.7497 15.08833138 47602,6917.901,95.438,540.586,538.947,0.0
53438.0,STARLINK-4526,PAYLOAD,2023-06-15 13:11:52,15.08833939,0.0001154,53.2164,264.5876,87.444,272.6685,3.6361e-05,2.91e-06,0.0,0 STARLINK-4526,1 53438U 22097BC  23166.54990754  .00000291  00000-0  36361-4 0  9999,2 53438  53.2164 264.5876 0001154  87.4440 272.6685 15.08833939 48111,6917.899,95.438,540.562,538.966,0.0
53438.0,STARLINK-4526,PAYLOAD,2023-06-16 09:51:51,15.08849965,0.0001044,53.2164,260.7213,90.2839,269.8273,0.00012739,1.741e-05,0.0,0 STARLINK-4526,1 53438U 22097BC  23167.41101376  .00001741  00000-0  12739-3 0  9993,2 53438  53.2164 260.7213 0001044  90.2839 269.8273 15.08849965 47752,6917.85,95.437,540.437,538.993,0.0
53438.0,STARLINK-4526,PAYLOAD,2023-06-16 13:02:37,15.08855259,0.0001085,53.2163,260.1276,80.7759,279.3356,0.00018021,2.583e-05,0.0,0 STARLINK-4526,1 53438U 22097BC  23167.54348971  .00002583  00000-0  18021-3 0  9996,2 53438  53.2163 260.1276 0001085  80.7759 279.3356 15.08855259 48262,6917.834,95.437,540.449,538.948,0.0
53438.0,STARLINK-4526,PAYLOAD,2023-06-16 22:34:57,15.08839841,0.0001213,53.2158,258.3432,81.8005,278.3125,0.00016786,2.385e-05,0.0,0 STARLINK-4526,1 53438U 22097BC  23167.94094152  .00002385  00000-0  16786-3 0  9995,2 53438  53.2158 258.3432 0001213  81.8005 278.3125 15.08839841 47832,6917.881,95.438,540.585,538.907,0.0
53438.0,STARLINK-4526,PAYLOAD,2023-06-17 06:31:53,15.08833467,0.0001634,53.2157,256.8556,83.3646,276.7532,4.5021e-05,4.28e-06,0.0,0 STARLINK-4526,1 53438U 22097BC  23168.27214708  .00000428  00000-0  45021-4 0  9994,2 53438  53.2157 256.8556 0001634  83.3646 276.7532 15.08833467 47883,6917.9,95.438,540.896,538.635,0.0
53438.0,STARLINK-4526,PAYLOAD,2023-06-17 12:53:26,15.0883308,0.0001081,53.2155,255.6673,94.2883,265.8233,3.8495e-05,3.25e-06,0.0,0 STARLINK-4526,1 53438U 22097BC  23168.53710764  .00000325  00000-0  38495-4 0  9999,2 53438  53.2155 255.6673 0001081  94.2883 265.8233 15.08833080 48416,6917.902,95.438,540.514,539.019,0.0
